[{"OBJECT_NAME":"SITRO-AIS 5 (KATYS)","OBJECT_ID":"2023-091L","EPOCH":"2026-03-09T22:36:44.932608","MEAN_MOTION":15.27079182,"ECCENTRICITY":0.00133776,"INCLINATION":97.5176,"RA_OF_ASC_NODE":132.0172,"ARG_OF_PERICENTER":94.5677,"MEAN_ANOMALY":265.709,"EPHEMERIS_TYPE":0,"CLASSIFICATION_TYPE":"U","NORAD_CAT_ID":57176,"ELEMENT_SET_NO":999,"REV_AT_EPOCH":14918,"BSTAR":0.00057530772,"MEAN_MOTION_DOT":0.00015262,"MEAN_MOTION_DDOT":0},{"OBJECT_NAME":"STARLINK-32934","OBJECT_ID":"2025-048T","EPOCH":"2026-03-09T02:11:23.031456","MEAN_MOTION":15.27581359,"ECCENTRICITY":9.679e-5,"INCLINATION":42.9999,"RA_OF_ASC_NODE":88.4334,"ARG_OF_PERICENTER":257.9111,"MEAN_ANOMALY":102.1632,"EPHEMERIS_TYPE":0,"CLASSIFICATION_TYPE":"U","NORAD_CAT_ID":63200,"ELEMENT_SET_NO":999,"REV_AT_EPOCH":5700,"BSTAR":0.0011780883,"MEAN_MOTION_DOT":0.000323,"MEAN_MOTION_DDOT":0}]
